CSS (TIANHE)            
1 48274U 21035A   24120.16613569  .00037603  00000+0  40960-3 0  9992
2 48274  41.4691  22.5544 0003809 269.3856  90.6547 15.62659229171426
